FENGYUN 1C DEB          
1 30972U 99025BBN 17345.56106656  .00001571  00000-0  71332-3 0  9994
2 30972  98.9722  12.0383 0022188  59.4782 300.8582 14.23189708556446
